#cP2019  4  8  0  0  0.00000000      96   u+U IGb08 FIT  WHU
## 2048  86400.00000000   900.00000000 58581     0.000000000
+  112   G01G02G03G05G06G07G08G09G10G11G12G13G14G15G16G17G18
+        G19G20G21G22G23G24G25G26G27G28G29G30G31G32R01R02R03
+        R04R05R07R08R09R10R11R13R14R15R16R17R18R19R20R21R22
+        R23R24E01E02E03E04E05E07E08E09E11E12E14E18E19E21E24
+        E25E26E27E30E31E33E36C01C02C03C04C05C06C07C08C09C10
+        C11C12C13C14C18C19C20C21C22C23C24C25C26C27C28C29C30
+        C32C33C34C35C36C37J01J02J03J07  0  0  0  0  0  0  0
+          0  0  0  0  0  0  0  0  0  0  0  0  0  0  0  0  0
+          0  0  0  0  0  0  0  0  0  0  0  0  0  0  0  0  0
+          0  0  0  0  0  0  0  0  0  0  0  0  0  0  0  0  0
++         3  3  2  3  3  3  5  3  2  3  3  3  2  3  3  4  3
++         4  3  3  3  3  3  3  2  5  3  4  2  2  4  4  3  3
++         3  3  3  3  3  3  2  2  2  2  2  3  3  3  4  4  4
++         3  3  9  9  9  9  9  9  9  9  9  9  0  0  9  9  9
++         9  9  9  9  9  9  9  9  9 10  9 10  9  9  9 10  9
++         9  9  9  9 10 10 10 10 10 10 10  9 10 10 10 10 10
++        10 10 10  9 10  9 10  9 10  0  0  0  0  0  0  0  0
++         0  0  0  0  0  0  0  0  0  0  0  0  0  0  0  0  0
++         0  0  0  0  0  0  0  0  0  0  0  0  0  0  0  0  0
++         0  0  0  0  0  0  0  0  0  0  0  0  0  0  0  0  0
%c M  cc GPS ccc cccc cccc cccc cccc ccccc ccccc ccccc ccccc
%c cc cc ccc ccc cccc cccc cccc cccc ccccc ccccc ccccc ccccc
%f  1.2500000  1.025000000  0.00000000000  0.000000000000000
%f  0.0000000  0.000000000  0.00000000000  0.000000000000000
%i    0    0    0    0      0      0      0      0         0
%i    0    0    0    0      0      0      0      0         0
/* GNSS RESEARCH CENTER, WUHAN UNIVERSITY (WHU), P. R. CHINA
/* POSITION AND NAVIGATION DATA ANALYST (PANDA) SOFTWARE    
/* PCV:IGS08_2046 OL/AL:FES2004  NONE     NN ORB:CoM CLK:CoN
/*
*  2019  4  8  4 45  0.00000000
PG01   3942.831909  14472.643974 -22097.940188   -197.187149
PG02  18193.094141 -14919.466931  12765.418209   -183.630171
PG03  10055.925468  22018.413932 -11055.351677    187.997521
PG05   7642.159042 -13862.337316  21185.499150      1.149896
PG06  25578.176476  -7080.093559   1466.977885    236.109164
PG07  18242.128451   8795.836040  17671.600233     -0.590030
PG08  -5312.762150  25737.505653  -2951.416643   -139.112086
PG09  10821.488689  13704.875739  19967.380766    432.444738
PG10 -20824.940602  -6761.225453 -15109.646042     78.288568
PG11   -166.076270  19106.050881 -19068.725149   -630.598889
PG12  -7992.829265 -22474.896063 -12082.247210    253.187552
PG13  12848.731223 -22921.338518   3602.956911    -68.662525
PG14 -16849.994853  12110.248881 -16159.434074    -85.330753
PG15   1637.932576 -25907.646147  -4781.908702   -319.520662
PG16  -7255.409902  13707.640965  21302.492220    -31.084018
PG17  15732.339980  -2898.492801 -20779.121782     35.732867
PG18  -6532.169254  16676.461188 -20057.080894     42.166026
PG19  17134.995744 -11218.808324 -17257.892612   -333.185339
PG20 -22526.472591 -12806.920204  -6273.400545    523.791221
PG21 -21413.649093  -5289.676351  15500.615250   -216.761438
PG22   3713.415430  20320.310158 -16489.413725   -679.643220
PG23   3668.219880  22634.200660  13369.845374   -191.045059
PG24   -142.706282 -16119.800011 -21225.729879    -64.480873
PG25 -17382.908564 -20226.006713  -1544.757597   -743.034054
PG26 -15489.932146   5466.136599  20883.388930    170.304248
PG27 -11965.476991  22267.466744   7528.045114   -103.544486
PG28  19670.336450   9634.992815 -14349.293162    767.270893
PG29  -5880.483013 -18493.764762  18107.057918    230.622943
PG30  25223.907264   1547.830223   8487.381847    -82.615052
PG31 -25657.672563   7224.424705   2801.759632     46.575271
PG32 -16420.870605   6565.107586 -19732.985843   -142.814701
PR01   1557.262531  23239.565406 -10413.976273     41.998554
PR02  10590.817741  20955.725488   9946.593660    362.644849
PR03  12266.390400   5557.127295  21697.383866     -6.619243
PR04   6480.808306 -13504.328713  20671.023815    301.623047
PR05  -2613.847839 -23999.400378   8282.309363     25.699467
PR07 -12182.532231  -5144.023756 -21781.836877    -17.895468
PR08  -6820.279682  12805.985190 -20922.613053     18.321279
PR09 -19896.118528 -11032.059089 -11462.216118     63.305272
PR10 -24684.260355  -4899.068489   3881.743687     47.146147
PR11 -15942.405752   5349.092030  19171.560294    -62.261450
PR13  19007.366161  11043.675890  12917.894053    -22.202837
PR14  24779.009916   4594.932488  -3975.581294     37.706085
PR15  16667.779855  -4726.814277 -18705.025931    101.178581
PR16  -1429.127270 -11586.254506 -22719.323404     10.343749
PR17  16850.515847  -4909.658751 -18486.075949    218.535811
PR18  19039.114207 -16567.702349  -3916.412115    -11.136930
PR19  11389.170233 -18909.629015  12791.170276    -24.316556
PR20  -4580.910742  -9932.318359  23058.341140   -374.270705
PR21 -17090.501381   5476.428727  18138.191287    -41.159955
PR22 -18422.781040  17492.174601   1306.992266    -13.413908
PR23  -7141.914644  17815.918504 -16799.477773    220.366364
PR24   6233.069203   8567.175002 -23224.274800   -179.104890
PE01   1204.842616 -17153.293407 -24099.005770   -579.141602
PE02  -1158.537573  17162.319230  24080.581986     54.947921
PE03  -3322.912273  28565.830242  -7030.244369   -152.822709
PE04  -9498.674427 -25684.424130 -11231.352872   -256.933394
PE05 -14306.473746  14715.411702 -21324.139068     77.852337
PE07  16875.951323   7675.032125  23087.022699   -164.542502
PE08   9706.235305  25556.181657  11371.180969   6375.785694
PE09 -16794.025001  -7507.510281 -23177.981635   6476.050224
PE11 -23364.939750   1219.792862  18117.506881   5709.175693
PE12  -7716.297110 -14559.419156  24598.951786   6455.208002
PE14 -10320.737937 -12574.687524  17135.388491   -520.991110
PE18  17800.262813  10808.126967 -24956.358151   -620.329051
PE19   4511.143957 -27884.351375   8864.213154     -7.237012
PE21  20452.241336  -5144.913241 -20779.030872   -528.023323
PE24 -27415.920279  -9702.885966   5552.071390   6143.859454
PE25 -20489.945452   5099.263005  20742.532939   1841.206293
PE26  24991.192978 -15824.385722  -1154.007020   4707.182233
PE27  27440.117668   9813.458928  -5182.491458    494.342282
PE30  18484.068102  19034.908796  13097.182023   4968.705759
PE31 -18316.036723 -18984.700758 -13424.162947    862.721482
PE33  11849.175903 -21428.990342  16651.258767   -470.795479
PE36 -24844.570025  16038.152519   1159.609872    726.842773
PC01 -32320.069840  27069.817575    861.064594    431.625898
PC02   4333.320218  41904.523037  -1250.642393   -426.406621
PC03 -14755.762496  39459.374672   -143.856364     88.494852
PC04 -39647.541857  14379.887248    135.270360   -156.625645
PC05  21937.990567  35963.364114  -1407.285276   -212.550871
PC06 -14423.434814  37809.736236 -10806.807524    648.254569
PC07  -9932.626502  24512.965137  33006.604860   -287.968213
PC08 -25980.661041  24712.003502 -22312.629325    142.198345
PC09  -5531.851172  41374.468877   4660.811186    668.781176
PC10   4286.198422  30670.356914  28903.794239   -644.568419
PC11  19982.946391 -15882.174150 -11159.738371    -90.769558
PC12  10774.865932  11276.445025 -23081.417824    559.115895
PC13 -10731.270800  26570.835781 -30963.585210   -640.038304
PC14  18195.681038   3731.016007  20879.309911    697.094743
PC18   1742.933487  26873.111663  32503.990167    -35.520049
PC19  -8091.318990  16539.764865 -20941.299545     78.572330
PC20 -17762.870581  -2217.163255 -21376.437069    268.428975
PC21  17078.511284  20106.999332   9152.572284    451.675327
PC22   6347.287875  25893.470872  -8282.858393    318.384852
PC23  -2779.605944 -16196.561626 -22556.718622   -557.075760
PC24  27711.876266     42.587684  -3208.534231   -610.999907
PC25  17210.103279 -11991.095582 -18404.469025   -176.747553
PC26  22092.696142  10638.562976  13292.484733    197.243871
PC27 -11030.524993 -11768.200612  22763.729857     94.421065
PC28   4558.991908 -23581.737930  14209.337307     92.817056
PC29 -16611.586186  22268.992292   2582.175945     46.763640
PC30 -19880.117170   7530.726549  18068.267934    102.135343
PC32 -17211.823891 -19957.535433  -9145.793081   -609.862804
PC33   8113.377495 -16531.391880  20975.459961    -79.806759
PC34  19986.767382  -7654.603243 -17922.873974    298.118668
PC35  -3757.925473  23729.465946 -14159.579778    200.572856
PC36 -17610.642544  11524.628654  18337.174902   -252.945353
PC37 -21523.836726 -11352.937224 -13652.125603    -42.068853
PJ01 -18544.655835  24421.201432 -24330.086988   -329.242641
PJ02 -28906.373532  21709.612730  26466.761607      1.136772
PJ03 -30388.033762  26803.203160  16682.879686     -0.332199
PJ07 -25383.519092  33655.907546    -31.641546     -0.045333
EOF
